IXPE                    
1 49954U 21121A   23299.56990294  .00005433  00000+0  41000-3 0  9999
2 49954   0.2318 330.4980 0009975  42.8937 346.6352 14.95234071102702
